TRANSPORTER-10 OBJECT AD
1 59125U 24043AD  26068.86032889  .00011954  00000+0  36311-3 0  9997
2 59125  97.5470 207.3753 0008984 221.4908 138.5653 15.34189901112026
STARLINK-34365          
1 64671U 25139H   26068.44965946  .00026197  00000+0  89298-3 0  9996
2 64671  53.1567 128.4161 0001097  93.2285 266.8841 15.30218259 40300
